OSCAR 7 (AO-7)          
1 07530U 74089B   19342.86811647 -.00000039  00000-0  40409-4 0  9997
2 07530 101.7714 308.9088 0012399  14.1906  14.0223 12.53641106 62222
UOSAT 2 (UO-11)         
1 14781U 84021B   19341.80991735  .00000065  00000-0  14008-4 0  9994
2 14781  97.5999 358.2807 0009902 111.1164 249.1110 14.83125807924270
LUSAT (LO-19)           
1 20442U 90005G   19342.83965848 -.00000004  00000-0  15021-4 0  9994
2 20442  98.6687 284.6937 0011887   4.7752 355.3543 14.32940052561175
ITAMSAT (IO-26)         
1 22826U 93061D   19341.92854881 -.00000006  00000-0  15681-4 0  9994
2 22826  98.9103 334.5809 0008523 200.0296 160.0552 14.30407307366521
RADIO ROSTO (RS-15)     
1 23439U 94085A   19341.93024541 -.00000013  00000-0  83956-3 0  9992
2 23439  64.8136 197.5919 0145794  79.4816 282.2496 11.27569186 27319
JAS-2 (FO-29)           
1 24278U 96046B   19341.84029131 -.00000026  00000-0  72806-5 0  9991
2 24278  98.5628 112.1198 0350793 153.6544 208.2916 13.53095206151088
TECHSAT 1B (GO-32)      
1 25397U 98043D   19341.87754939 -.00000025  00000-0  85601-5 0  9993
2 25397  98.7072 280.0611 0000266 218.0218 142.0941 14.23675633112156
ISS (ZARYA)             
1 25544U 98067A   19342.93340278  .00001281  00000-0  30371-4 0  9995
2 25544  51.6436 214.9672 0007395  14.0063 165.4564 15.50098325202368
PCSAT (NO-44)           
1 26931U 01043C   19342.11813054 -.00000044  00000-0  15056-4 0  9991
2 26931  67.0516 278.7298 0007221 264.6015  95.4263 14.30560916949632
SAUDISAT 1C (SO-50)     
1 27607U 02058C   19342.84461613 -.00000057  00000-0  12827-4 0  9996
2 27607  64.5550 240.1973 0070303 222.4406 137.1248 14.75593788912586
CUTE-1 (CO-55)          
1 27844U 03031E   19342.86356746  .00000050  00000-0  42459-4 0  9999
2 27844  98.6837 348.4866 0008888 247.8914 112.1320 14.22209679852900
CUBESAT XI-IV (CO-57)   
1 27848U 03031J   19341.84960442  .00000038  00000-0  37272-4 0  9997
2 27848  98.6912 348.0213 0008701 264.4123  95.6062 14.21800477852608
MOZHAYETS 4 (RS-22)     
1 27939U 03042A   19342.70369366  .00000090  00000-0  24786-4 0  9998
2 27939  98.0636 115.4104 0011965 236.5705 123.4361 14.66822599865900
CUBESAT XI-V            
1 28895U 05043F   19341.91578589  .00000114  00000-0  30817-4 0  9993
2 28895  97.9828 119.0077 0017234 164.1397 196.0349 14.63718337752447
CUTE-1.7+APD II (CO-65) 
1 32785U 08021C   19342.80370343  .00000199  00000-0  26995-4 0  9997
2 32785  97.5588 334.4419 0014256  52.9545 307.2974 14.88385720629437
DELFI-C3 (DO-64)        
1 32789U 08021G   19341.71113684  .00000588  00000-0  42938-4 0  9990
2 32789  97.4445  26.0204 0010668 254.0739 105.9314 15.07306600632876
SEEDS II (CO-66)        
1 32791U 08021J   19342.52935870  .00000286  00000-0  34289-4 0  9997
2 32791  97.5324 340.2901 0014027  28.2028 331.9948 14.90927347629863
YUBILEINY (RS-30)       
1 32953U 08025A   19342.84586297  .00000021  00000-0  75656-4 0  9991
2 32953  82.5060  37.0774 0020310 111.6820 248.6426 12.43092677523821
KKS-1 (KISEKI)          
1 33499U 09002H   19342.80904462  .00000097  00000-0  22340-4 0  9992
2 33499  98.3341 186.9301 0009581  22.8307 337.3325 14.75486306584750
SWISSCUBE               
1 35932U 09051B   19341.77643721  .00000118  00000-0  37713-4 0  9997
2 35932  98.5995 152.9614 0007601   6.2447 353.8843 14.56337192541829
BEESAT-1                
1 35933U 09051C   19341.76924408  .00000088  00000-0  30968-4 0  9992
2 35933  98.6008 154.7786 0006100  21.4595 338.6857 14.56419699541933
ITUPSAT1                
1 35935U 09051E   19342.13273159  .00000093  00000-0  32522-4 0  9990
2 35935  98.6116 155.3768 0008332  15.6217 344.5235 14.55573039541728
XIWANG-1 (HOPE-1)       
1 36122U 09072B   19342.19017960 -.00000043  00000-0 -25273-5 0  9997
2 36122 100.0805 336.5069 0007026 310.4133  49.6373 13.16352202479571
JUGNU                   
1 37839U 11058B   19342.43217771  .00000302  00000-0  19040-4 0  9999
2 37839  19.9626   7.2465 0019166  71.5890 316.7233 14.12666328421711
SRMSAT                  
1 37841U 11058D   19342.60973222  .00000297  00000-0  18004-4 0  9993
2 37841  19.9726  66.5203 0011762 297.0195 202.1494 14.10644939421135
M-CUBED & EXP-1 PRIME   
1 37855U 11061F   19341.91730529  .00001161  00000-0  65532-4 0  9995
2 37855 101.7249 326.0228 0172232 286.1880  72.0439 15.05859638442226
STRAND-1                
1 39090U 13009E   19342.48708752  .00000052  00000-0  33407-4 0  9992
2 39090  98.4696 185.4100 0009934 130.9414 229.2633 14.35108867355172
SOMP                    
1 39134U 13015E   19341.90058371  .00000902  00000-0  49803-4 0  9990
2 39134  64.8615 182.3612 0037646 275.6223  84.0612 15.20555358366395
BEESAT-3                
1 39135U 13015F   19341.93428757  .00000499  00000-0  34162-4 0  9996
2 39135  64.8654 202.9997 0042065 278.4644  81.1716 15.17776356365990
BEESAT-2                
1 39136U 13015G   19342.36674141  .00000715  00000-0  45494-4 0  9996
2 39136  64.8688 205.9391 0030614 284.1018  75.6706 15.17197351366366
ZACUBE-1 (TSHEPISOSAT)  
1 39417U 13066B   19342.58263441  .00000178  00000-0  28642-4 0  9994
2 39417  97.5612 346.3588 0058761 185.6876 174.3677 14.81189069326633
GOMX-1                  
1 39430U 13066Q   19342.75711940  .00000198  00000-0  44359-4 0  9995
2 39430  97.7696 288.1044 0152404  68.7153 293.0248 14.59319908321843
CUBEBUG-2 (LO-74)       
1 39440U 13066AA  19342.83751098  .00000157  00000-0  29006-4 0  9990
2 39440  97.6136 331.1568 0078874 242.0751 117.2458 14.75927699325519
FUNCUBE-1 (AO-73)       
1 39444U 13066AE  19342.75706619  .00000226  00000-0  34023-4 0  9996
2 39444  97.5576 348.6253 0058078 178.2036 181.9397 14.82023359325567
UWE-3                   
1 39446U 13066AG  19342.68053913  .00000171  00000-0  29385-4 0  9996
2 39446  97.5869 338.1784 0069127 214.5927 145.0779 14.78461607324827
SPROUT                  
1 39770U 14029E   19342.78854177  .00000390  00000-0  49065-4 0  9998
2 39770  97.8911  85.0444 0007958 233.7216 126.3255 14.87530532300567
UNISAT-6                
1 40012U 14033C   19341.89621889  .00000144  00000-0  28880-4 0  9996
2 40012  97.7319 200.8620 0056926 262.0962  97.3784 14.74041454294050
DUCHIFAT-1              
1 40021U 14033M   19342.52407114  .00000264  00000-0  32770-4 0  9996
2 40021  97.9314 267.7322 0012292 194.5073 165.5794 14.90756437297298
QB50P1                  
1 40025U 14033R   19342.74328575  .00000201  00000-0  27384-4 0  9993
2 40025  97.9091 262.1488 0011692 204.7230 155.3428 14.89033703297077
NUDT-PHONESAT           
1 40900U 15049B   19342.83510796  .00001611  00000-0  70714-4 0  9992
2 40900  97.4359 350.5151 0011281 301.4935 182.3148 15.23367588234015
ZDPS 2A                 
1 40901U 15049C   19342.73558113  .00000744  00000-0  39938-4 0  9996
2 40901  97.4618 346.0959 0012728 327.8161 147.3498 15.17968158233482
ZDPS 2B                 
1 40902U 15049D   19342.78835720  .00000800  00000-0  42809-4 0  9998
2 40902  97.4573 343.5085 0012579 324.3334 208.7599 15.17868745233466
XW-2A                   
1 40903U 15049E   19342.71759208  .00001307  00000-0  32215-4 0  9991
2 40903  97.3168  26.2952 0011867 235.2587 265.6475 15.42397741236912
KAITUO 1A               
1 40904U 15049F   19342.73445861  .00000593  00000-0  34727-4 0  9997
2 40904  97.4723 341.8431 0013896 334.5441 135.9306 15.15529731233202
2015-049G               
1 40905U 15049G   19342.75250329  .00000420  00000-0  26395-4 0  9994
2 40905  97.4779 339.2360 0014844 329.5205 203.6532 15.14409979233060
XW-2C                   
1 40906U 15049H   19342.77671748  .00000290  00000-0  18639-4 0  9996
2 40906  97.4725 342.0504 0013885 324.6637 208.6147 15.15850144233212
XW-2D                   
1 40907U 15049J   19342.78967884  .00000542  00000-0  31584-4 0  9991
2 40907  97.4711 341.7487 0013208 321.9396 165.1364 15.16056964233234
LILACSAT-2              
1 40908U 15049K   19342.70996265  .00000048  00000-0  62946-5 0  9997
2 40908  97.4847 340.2876 0015255 330.3209 139.7786 15.13907065232982
XW-2F                   
1 40910U 15049M   19342.84663374  .00000625  00000-0  34454-4 0  9990
2 40910  97.4658 344.0762 0013670 312.5433 168.7043 15.17579648233278
XW-2B                   
1 40911U 15049N   19342.77263368  .00000390  00000-0  23780-4 0  9991
2 40911  97.4722 342.4094 0013212 323.3069 208.6023 15.15984037233124
KAITUO 1B               
1 40912U 15049P   19342.74333909  .00000977  00000-0  48577-4 0  9990
2 40912  97.4500 347.8872 0013392 291.7671 183.2476 15.19929162233591
TIANWANG 1C (TW-1C)     
1 40926U 15051B   19342.87829252  .00011100  00000-0  14110-3 0  9998
2 40926  97.1145  29.0098 0008962  88.0632 359.0137 15.59505059237116
TIANWANG 1A (TW-1A)     
1 40928U 15051D   19342.78989050  .00001999  00000-0  49333-4 0  9994
2 40928  97.1301  10.1935 0011387 155.0652 316.0138 15.41632785235834
LAPAN-A2                
1 40931U 15052B   19342.12389082  .00000370  00000-0 -37558-4 0  9995
2 40931   6.0005 266.9022 0012502  74.0874 286.0779 14.76619897226789
E-ST@R-II               
1 41459U 16025D   19342.72960055  .00001542  00000-0  81439-4 0  9991
2 41459  98.1008  77.9475 0167803 136.5191 224.9396 15.05898406198583
AAUSAT 4                
1 41460U 16025E   19342.81282394  .00002882  00000-0  14493-3 0  9999
2 41460  98.0968  79.7383 0157060 127.3601 234.2041 15.07971132198755
NUSAT-1 (FRESCO)        
1 41557U 16033B   19342.80434523  .00000917  00000-0  36677-4 0  9993
2 41557  97.4130  69.2811 0014892  50.8923 309.3637 15.27584290196512
BEESAT-4                
1 41619U 16040W   19341.75210627  .00001066  00000-0  47486-4 0  9996
2 41619  97.3476  40.6031 0012486 133.1658 227.0625 15.23520259180053
CAS-2T & KS-1Q          
1 41847U 16066G   19342.86628802  .00000061  00000-0  18872-4 0  9999
2 41847  98.6840  26.1579 0366863  79.6449 284.5870 14.38025661161886
NAYIF-1 (EO-88)         
1 42017U 17008BX  19342.18643704  .00001193  00000-0  49252-4 0  9992
2 42017  97.3851  47.3573 0004609 284.6232  75.4495 15.25958113156224
MAX VALIER SAT          
1 42778U 17036P   19341.89725250  .00000705  00000-0  33564-4 0  9998
2 42778  97.3335  35.5813 0011694 347.2307  12.8632 15.22288378136437
RADFXSAT (FOX-1B)       
1 43017U 17073E   19342.76970543  .00000631  00000-0  55131-4 0  9992
2 43017  97.7249 257.3653 0256750 315.0356  43.0315 14.78734434110838
FOX-1D (AO-92)          
1 43137U 18004AC  19341.76749798  .00000751  00000-0  34217-4 0  9990
2 43137  97.4700  49.0300 0009685  22.6097 337.5565 15.23755760105693
ES'HAIL 2               
1 43700U 18090A   19342.32174161  .00000162  00000-0  00000+0 0  9994
2 43700   0.0213 340.0719 0001858 303.6822 294.6531  1.00269620  4024
FOX-1CLIFF (AO-95)      
1 43770U 18099N   19342.74166427  .00000578  00000-0  58239-4 0  9995
2 43770  97.7293  52.2467 0016051 115.2367 245.0519 14.94866764 55274
ITASAT 1                
1 43786U 18099AE  19342.51547253 -.00000215  00000-0 -14289-4 0  9994
2 43786  97.7309  52.3049 0016583 110.1929 250.1076 14.95224028 55259
JY1SAT (JO-97)          
1 43803U 18099AX  19342.81870061  .00000675  00000-0  66246-4 0  9991
2 43803  97.7268  52.4731 0016732 109.9510 250.3515 14.95376399 55293
PSAT2 (NO-104)          
1 44354U 19036R   19342.32132280  .00011206  00000-0  16941-3 0  9993
2 44354  28.5285 199.0352 0378979  64.5800 299.3515 14.99788351 24901
BRICSAT2 (NO-103)       
1 44355U 19036S   19342.01831294  .00018943  00000-0  28490-3 0  9998
2 44355  28.5289 199.5116 0370341  63.8303 299.9890 15.01897286 24874
JAISAT-1                
1 44419U 19038F   19341.85373280  .00000691  00000-0  43273-4 0  9996
2 44419  97.5126 301.0810 0023401  75.4604 284.9221 15.12460727 23483
